OBJECT_NAME,OBJECT_ID,EPOCH,MEAN_MOTION,ECCENTRICITY,INCLINATION,RA_OF_ASC_NODE,ARG_OF_PERICENTER,MEAN_ANOMALY,EPHEMERIS_TYPE,CLASSIFICATION_TYPE,NORAD_CAT_ID,ELEMENT_SET_NO,REV_AT_EPOCH,BSTAR,MEAN_MOTION_DOT,MEAN_MOTION_DDOT
SL-16 R/B,1994-077B,2026-07-20T01:12:00.523584,14.15575236,.00041576,70.9821,74.0254,299.7281,60.3427,0,U,23405,999,63496,.11848496E-3,.184E-5,0
ARIANE 40+ R/B,1995-021B,2026-07-20T04:40:20.823744,14.39849215,.00079458,98.4397,270.7904,103.9800,278.4460,0,U,23561,999,63831,.50457399E-4,.115E-5,0
SL-16 R/B,1995-058B,2026-07-20T04:54:45.167616,14.15511686,.00146927,71.0205,262.0377,276.3664,83.5786,0,U,23705,999,58660,.1655917E-3,.276E-5,0
SL-16 R/B,1996-051B,2026-07-20T04:11:43.069056,14.12458508,.00181321,70.7641,254.8392,291.6550,68.2638,0,U,24298,999,54035,.10141605E-3,.138E-5,0
ORBVIEW 2 (SEASTAR),1997-037A,2026-07-20T04:43:06.985632,14.35568180,.00028995,98.8720,9.1357,50.7040,309.4401,0,U,24883,999,52748,.52387812E-4,.104E-5,0
SL-16 R/B,1998-043G,2026-07-20T03:05:20.906880,14.26073165,.00097876,98.8381,155.5747,357.3627,2.7499,0,U,25400,999,45786,.20300821E-4,.3E-7,0
SL-16 R/B,1998-045B,2026-07-20T03:36:51.853824,14.16205170,.00079197,71.0100,263.0073,199.2845,160.7980,0,U,25407,999,44585,.58239675E-4,.68E-6,0
ISS (ZARYA),1998-067A,2026-07-20T02:07:54.205248,15.49056873,.00068137,51.6315,137.2714,316.7062,43.3390,0,U,25544,999,57685,.9099994E-4,.4577E-4,0
CZ-4B R/B,1999-025C,2026-07-20T03:44:21.914016,14.18288223,.00363907,98.6468,242.1618,325.2077,103.8639,0,U,25732,999,40694,.23287889E-4,.5E-7,0
OKEAN-O,1999-039A,2026-07-20T01:25:35.009472,14.80500540,.00008822,97.9296,259.4769,98.3417,261.7896,0,U,25860,999,45397,.41156257E-4,.263E-5,0
SL-16 R/B,1999-039B,2026-07-20T02:50:17.026368,14.81873457,.00147197,97.9818,259.8842,182.1589,177.9562,0,U,25861,999,45647,.31070675E-4,.192E-5,0
DELTA 2 R/B,1999-041E,2026-07-20T03:49:29.025408,14.12097369,.05014862,51.7614,132.0599,19.4111,342.5189,0,U,25876,999,38174,.17945554E-3,.873E-5,0
HELIOS 1B,1999-064A,2026-07-20T04:40:46.607232,14.88082321,.00016935,98.1578,107.2861,49.3227,310.8135,0,U,25977,999,70496,.771406E-4,.651E-5,0
TERRA,1999-068A,2026-07-20T05:36:00.093024,14.61126000,.00035841,97.9437,249.4663,113.1192,319.2409,0,U,25994,999,41443,.46234012E-4,.183E-5,0
SL-16 R/B,2000-006B,2026-07-20T03:06:42.283584,14.15838754,.00174,71.0006,179.3573,333.1412,26.8809,0,U,26070,999,36730,.11561992E-3,.18E-5,0
TITAN 4B R/B,2000-047B,2026-07-20T05:45:14.199552,15.10347867,.00457133,67.9874,27.5241,253.7154,105.8965,0,U,26474,999,41292,.91329793E-4,.1396E-4,0
ENVISAT,2002-009A,2026-07-20T07:07:37.286112,14.39071427,.00013123,98.3848,151.8801,82.4412,88.5600,0,U,27386,999,27824,.24308736E-4,.32E-6,0
IDEFIX & ARIANE 42P R/B,2002-021B,2026-07-20T06:29:02.029632,14.31095125,.00122177,98.5941,138.3958,151.8413,208.3433,0,U,27422,999,26298,.5335697E-4,.97E-6,0
AQUA,2002-022A,2026-07-20T06:05:01.638816,14.62132779,.00012986,98.4300,171.2019,102.0478,10.8857,0,U,27424,999,28810,.86576793E-4,.386E-5,0
CZ-4B R/B,2002-024C,2026-07-20T03:06:53.746272,14.14568649,.00502154,98.8681,253.7328,8.0092,47.2454,0,U,27432,999,24796,.21668278E-4,-.2E-7,0
MIDORI II (ADEOS-II),2002-056A,2026-07-19T21:34:00.594336,14.29364364,.00012869,98.7897,160.4401,34.6858,325.4407,0,U,27597,999,22918,.56883634E-4,.1E-5,0
H-2A R/B,2002-056E,2026-07-20T07:39:20.594304,14.33835597,.00711428,98.3331,156.7892,125.8379,40.4944,0,U,27601,999,23311,.62002669E-4,.136E-5,0
CZ-4B R/B,2003-049C,2026-07-19T23:06:16.674336,14.55117830,.00479354,98.6913,201.1165,186.6266,173.4301,0,U,28059,999,20583,.38907911E-4,.119E-5,0
CZ-2C R/B,2004-012C,2026-07-19T17:24:32.971104,15.86177582,.00108216,97.7037,280.3528,178.2046,181.9265,0,U,28222,999,22504,.4230113E-3,.105771E-2,0
SL-16 R/B,2004-021B,2026-07-20T06:06:24.283872,14.14616077,.00061493,71.0029,314.2915,220.6580,139.4084,0,U,28353,999,14158,-.56062709E-4,-.155E-5,0
CZ-4B R/B,2004-035C,2026-07-20T01:50:39.772608,15.31030176,.00296408,97.3354,233.7867,214.6016,145.3297,0,U,28415,999,20015,.1326108E-3,.3949E-4,0
CZ-2C R/B,2004-046B,2026-07-20T03:30:55.700064,14.27034205,.01403801,98.1910,107.8619,122.8305,238.6484,0,U,28480,999,12739,.36549419E-4,.59E-6,0
ARIANE 5 R/B,2004-049H,2026-07-20T04:53:10.543200,14.85482216,.00825109,98.2747,14.7381,281.7888,77.4079,0,U,28499,999,16546,.39667092E-4,.297E-5,0
CZ-2D R/B,2005-024B,2026-07-20T00:20:12.060672,15.73169832,.00032546,97.3471,222.1705,179.1862,180.9408,0,U,28738,999,16049,.31492923E-3,.43179E-3,0
ALOS (DAICHI),2006-002A,2026-07-20T07:20:27.626784,14.70108060,.00009342,98.1340,156.7748,106.9919,253.1389,0,U,28931,999,9296,.10483236E-3,.58E-5,0
