SL-16 R/B               
1 23405U 94077B   26201.05000606  .00000184  00000+0  11848-3 0  9996
2 23405  70.9821  74.0254 0004157 299.7281  60.3427 14.15575236634969
ARIANE 40+ R/B          
1 23561U 95021B   26201.19468546  .00000115  00000+0  50457-4 0  9999
2 23561  98.4397 270.7904 0007945 103.9800 278.4460 14.39849215638312
SL-16 R/B               
1 23705U 95058B   26201.20468944  .00000276  00000+0  16559-3 0  9995
2 23705  71.0205 262.0377 0014692 276.3664  83.5786 14.15511686586607
SL-16 R/B               
1 24298U 96051B   26201.17480404  .00000138  00000+0  10142-3 0  9997
2 24298  70.7641 254.8392 0018132 291.6550  68.2638 14.12458508540356
ORBVIEW 2 (SEASTAR)     
1 24883U 97037A   26201.19660863  .00000104  00000+0  52388-4 0  9995
2 24883  98.8720   9.1357 0002899  50.7040 309.4401 14.35568180527488
SL-16 R/B               
1 25400U 98043G   26201.12871420  .00000003  00000+0  20301-4 0  9993
2 25400  98.8381 155.5747 0009787 357.3627   2.7499 14.26073165457864
SL-16 R/B               
1 25407U 98045B   26201.15060016  .00000068  00000+0  58240-4 0  9990
2 25407  71.0100 263.0073 0007919 199.2845 160.7980 14.16205170445858
ISS (ZARYA)             
1 25544U 98067A   26201.08882182  .00004577  00000+0  91000-4 0  9994
2 25544  51.6315 137.2714 0006813 316.7062  43.3390 15.49056873576852
CZ-4B R/B               
1 25732U 99025C   26201.15580919  .00000005  00000+0  23288-4 0  9994
2 25732  98.6468 242.1618 0036390 325.2077 103.8639 14.18288223406945
OKEAN-O                 
1 25860U 99039A   26201.05943298  .00000263  00000+0  41156-4 0  9993
2 25860  97.9296 259.4769 0000882  98.3417 261.7896 14.80500540453971
SL-16 R/B               
1 25861U 99039B   26201.11825262  .00000192  00000+0  31071-4 0  9997
2 25861  97.9818 259.8842 0014719 182.1589 177.9562 14.81873457456471
DELTA 2 R/B             
1 25876U 99041E   26201.15936372  .00000873  00000+0  17946-3 0  9995
2 25876  51.7614 132.0599 0501486  19.4111 342.5189 14.12097369381741
HELIOS 1B               
1 25977U 99064A   26201.19498388  .00000651  00000+0  77141-4 0  9994
2 25977  98.1578 107.2861 0001693  49.3227 310.8135 14.88082321704965
TERRA                   
1 25994U 99068A   26201.23333441  .00000183  00000+0  46234-4 0  9999
2 25994  97.9437 249.4663 0003584 113.1192 319.2409 14.61126000414437
SL-16 R/B               
1 26070U 00006B   26201.12965606  .00000180  00000+0  11562-3 0  9993
2 26070  71.0006 179.3573 0017400 333.1412  26.8809 14.15838754367303
TITAN 4B R/B            
1 26474U 00047B   26201.23974768  .00001396  00000+0  91330-4 0  9999
2 26474  67.9874  27.5241 0045713 253.7154 105.8965 15.10347867412928
ENVISAT                 
1 27386U 02009A   26201.29695933  .00000032  00000+0  24309-4 0  9990
2 27386  98.3848 151.8801 0001312  82.4412  88.5600 14.39071427278248
IDEFIX & ARIANE 42P R/B 
1 27422U 02021B   26201.27016238  .00000097  00000+0  53357-4 0  9994
2 27422  98.5941 138.3958 0012217 151.8413 208.3433 14.31095125262989
AQUA                    
1 27424U 02022A   26201.25349119  .00000386  00000+0  86577-4 0  9993
2 27424  98.4300 171.2019 0001298 102.0478  10.8857 14.62132779288108
CZ-4B R/B               
1 27432U 02024C   26201.12978873 -.00000002  00000+0  21668-4 0  9991
2 27432  98.8681 253.7328 0050215   8.0092  47.2454 14.14568649247964
MIDORI II (ADEOS-II)    
1 27597U 02056A   26200.89861799  .00000100  00000+0  56884-4 0  9995
2 27597  98.7897 160.4401 0001286  34.6858 325.4407 14.29364364229186
H-2A R/B                
1 27601U 02056E   26201.31898836  .00000136  00000+0  62003-4 0  9990
2 27601  98.3331 156.7892 0071142 125.8379  40.4944 14.33835597233116
CZ-4B R/B               
1 28059U 03049C   26200.96269299  .00000119  00000+0  38908-4 0  9994
2 28059  98.6913 201.1165 0047935 186.6266 173.4301 14.55117830205833
CZ-2C R/B               
1 28222U 04012C   26200.72538161  .00105771  00000+0  42301-3 0  9999
2 28222  97.7037 280.3528 0010821 178.2046 181.9265 15.86177582225044
SL-16 R/B               
1 28353U 04021B   26201.25444773 -.00000155  00000+0 -56063-4 0  9991
2 28353  71.0029 314.2915 0006149 220.6580 139.4084 14.14616077141585
CZ-4B R/B               
1 28415U 04035C   26201.07684922  .00003949  00000+0  13261-3 0  9991
2 28415  97.3354 233.7867 0029640 214.6016 145.3297 15.31030176200156
CZ-2C R/B               
1 28480U 04046B   26201.14647801  .00000059  00000+0  36549-4 0  9992
2 28480  98.1910 107.8619 0140380 122.8305 238.6484 14.27034205127396
ARIANE 5 R/B            
1 28499U 04049H   26201.20359425  .00000297  00000+0  39667-4 0  9992
2 28499  98.2747  14.7381 0082510 281.7888  77.4079 14.85482216165460
CZ-2D R/B               
1 28738U 05024B   26201.01402848  .00043179  00000+0  31493-3 0  9993
2 28738  97.3471 222.1705 0003254 179.1862 180.9408 15.73169832160493
ALOS (DAICHI)           
1 28931U 06002A   26201.30587531  .00000580  00000+0  10483-3 0  9995
2 28931  98.1340 156.7748 0000934 106.9919 253.1389 14.70108060 92963
